NORAD_CAT_ID,OBJECT_NAME,OBJECT_TYPE,EPOCH,MEAN_MOTION,ECCENTRICITY,INCLINATION,RA_OF_ASC_NODE,ARG_OF_PERICENTER,MEAN_ANOMALY,BSTAR,MEAN_MOTION_DOT,MEAN_MOTION_DDOT,TLE_LINE0,TLE_LINE1,TLE_LINE2,SEMIMAJOR_AXIS,PERIOD,APOGEE,PERIGEE,DECAYED
55315.0,STARLINK-4623,PAYLOAD,2024-03-31 20:46:01,14.98337793,0.0002734,70.0009,9.1459,269.0794,91.0052,-3.3473e-05,-4.92e-06,0.0,0 STARLINK-4623,1 55315U 23010AY  24091.86529681 -.00000492  00000-0 -33473-4 0  9997,2 55315  70.0009   9.1459 0002734 269.0794  91.0052 14.98337793 66944,6950.169,96.106,573.934,570.134,0.0
55315.0,STARLINK-4623,PAYLOAD,2024-03-31 22:22:09,14.98337746,0.0002737,70.0009,8.9776,269.097,90.9875,-3.2757e-05,-4.84e-06,0.0,0 STARLINK-4623,1 55315U 23010AY  24091.93205649 -.00000484  00000-0 -32757-4 0  9995,2 55315  70.0009   8.9776 0002737 269.0970  90.9875 14.98337746 67245,6950.169,96.107,573.936,570.132,0.0
55315.0,STARLINK-4623,PAYLOAD,2024-04-01 11:11:14,14.98339469,0.0002653,70.0013,7.6314,270.3814,89.7041,-0.00013999,-1.763e-05,0.0,0 STARLINK-4623,1 55315U 23010AY  24092.46613567 -.00001763  00000-0 -13999-3 0  9993,2 55315  70.0013   7.6314 0002653 270.3814  89.7041 14.98339469 67327,6950.164,96.106,573.872,570.185,0.0
55315.0,STARLINK-4623,PAYLOAD,2024-04-01 19:11:54,14.98327175,0.0002664,70.001,6.7901,273.2837,86.8017,2.1686e-05,1.66e-06,0.0,0 STARLINK-4623,1 55315U 23010AY  24092.79993927  .00000166  00000-0  21686-4 0  9997,2 55315  70.0010   6.7901 0002664 273.2837  86.8017 14.98327175 67080,6950.202,96.107,573.918,570.215,0.0
55315.0,STARLINK-4623,PAYLOAD,2024-04-02 03:12:35,14.98326975,0.0002689,70.0009,5.9491,268.0575,92.0276,1.0256e-05,2.9e-07,0.0,0 STARLINK-4623,1 55315U 23010AY  24093.13373973  .00000029  00000-0  10256-4 0  9998,2 55315  70.0009   5.9491 0002689 268.0575  92.0276 14.98326975 67422,6950.202,96.107,573.936,570.198,0.0
55315.0,STARLINK-4623,PAYLOAD,2024-04-02 19:13:55,14.9833241,0.0002679,70.0007,4.2659,268.2809,91.8043,-5.2686e-05,-7.22e-06,0.0,0 STARLINK-4623,1 55315U 23010AY  24093.80133808 -.00000722  00000-0 -52686-4 0  9998,2 55315  70.0007   4.2659 0002679 268.2809  91.8043 14.98332410 67238,6950.185,96.107,573.912,570.188,0.0
55315.0,STARLINK-4623,PAYLOAD,2024-04-02 20:50:03,14.98330425,0.0002731,70.0006,4.0979,265.5333,94.5514,-8.1357e-05,-1.064e-05,0.0,0 STARLINK-4623,1 55315U 23010AY  24093.86809985 -.00001064  00000-0 -81357-4 0  9997,2 55315  70.0006   4.0979 0002731 265.5333  94.5514 14.98330425 67531,6950.192,96.107,573.955,570.158,0.0
55315.0,STARLINK-4623,PAYLOAD,2024-04-03 11:15:16,14.9833016,0.0002797,70.0005,2.5837,265.2998,94.7841,-3.1755e-05,-4.72e-06,0.0,0 STARLINK-4623,1 55315U 23010AY  24094.46893839 -.00000472  00000-0 -31755-4 0  9994,2 55315  70.0005   2.5837 0002797 265.2998  94.7841 14.98330160 67623,6950.192,96.107,574.001,570.113,0.0
55315.0,STARLINK-4623,PAYLOAD,2024-04-03 19:15:56,14.98325019,0.0002908,70.0002,1.7415,270.6486,89.4339,3.0536e-06,-5.7e-07,0.0,0 STARLINK-4623,1 55315U 23010AY  24094.80274091 -.00000057  00000-0  30536-5 0  9990,2 55315  70.0002   1.7415 0002908 270.6486  89.4339 14.98325019 67382,6950.208,96.107,574.094,570.052,0.0
55315.0,STARLINK-4623,PAYLOAD,2024-04-03 20:52:04,14.98324855,0.0002915,70.0002,1.5731,270.6183,89.4642,1.8563e-06,-7.1e-07,0.0,0 STARLINK-4623,1 55315U 23010AY  24094.86950120 -.00000071  00000-0  18563-5 0  9992,2 55315  70.0002   1.5731 0002915 270.6183  89.4642 14.98324855 67680,6950.209,96.107,574.1,570.048,0.0
55315.0,STARLINK-4623,PAYLOAD,2024-04-04 11:17:17,14.98327078,0.0003014,69.9998,0.0569,270.5578,89.5236,7.7565e-06,0.0,0.0,0 STARLINK-4623,1 55315U 23010AY  24095.47034008  .00000000  00000-0  77565-5 0  9996,2 55315  69.9998   0.0569 0003014 270.5578  89.5236 14.98327078 67772,6950.202,96.107,574.162,569.972,0.0
55315.0,STARLINK-4623,PAYLOAD,2024-04-04 20:54:05,14.98329757,0.000305,69.9997,359.0467,270.3519,89.7291,1.4864e-05,8.4e-07,0.0,0 STARLINK-4623,1 55315U 23010AY  24095.87089843  .00000084  00000-0  14864-4 0  9991,2 55315  69.9997 359.0467 0003050 270.3519  89.7291 14.98329757 67542,6950.194,96.107,574.178,569.939,0.0
55315.0,STARLINK-4623,PAYLOAD,2024-04-04 22:30:13,14.98329765,0.0003051,69.9997,358.8784,270.3405,89.7405,1.4829e-05,8.4e-07,0.0,0 STARLINK-4623,1 55315U 23010AY  24095.93765843  .00000084  00000-0  14829-4 0  9990,2 55315  69.9997 358.8784 0003051 270.3405  89.7405 14.98329765 67845,6950.194,96.107,574.179,569.938,0.0
55315.0,STARLINK-4623,PAYLOAD,2024-04-05 11:19:17,14.98333126,0.000299,69.9999,357.5317,270.8157,89.2659,6.076e-05,6.32e-06,0.0,0 STARLINK-4623,1 55315U 23010AY  24096.47173407  .00000632  00000-0  60760-4 0  9993,2 55315  69.9999 357.5317 0002990 270.8157  89.2659 14.98333126 67926,6950.183,96.107,574.126,569.97,0.0
55315.0,STARLINK-4623,PAYLOAD,2024-04-05 20:56:06,14.98330948,0.0002959,70.0,356.5216,270.8681,89.2139,4.6049e-05,4.57e-06,0.0,0 STARLINK-4623,1 55315U 23010AY  24096.87229540  .00000457  00000-0  46049-4 0  9996,2 55315  70.0000 356.5216 0002959 270.8681  89.2139 14.98330948 67984,6950.19,96.107,574.112,569.998,0.0
55315.0,STARLINK-4623,PAYLOAD,2024-04-06 03:20:38,14.98334862,0.0002952,70.0,355.8483,270.9474,89.1346,6.6201e-05,6.97e-06,0.0,0 STARLINK-4623,1 55315U 23010AY  24097.13933177  .00000697  00000-0  66201-4 0  9992,2 55315  70.0000 355.8483 0002952 270.9474  89.1346 14.98334862 67737,6950.178,96.107,574.095,569.991,0.0
55315.0,STARLINK-4623,PAYLOAD,2024-04-06 22:34:15,14.98331879,0.0002882,70.0001,353.8283,271.0582,89.0247,-2.6985e-05,-4.15e-06,0.0,0 STARLINK-4623,1 55315U 23010AY  24097.94045455 -.00000415  00000-0 -26985-4 0  9999,2 55315  70.0001 353.8283 0002882 271.0582  89.0247 14.98331879 68148,6950.187,96.107,574.055,570.049,0.0
55315.0,STARLINK-4623,PAYLOAD,2024-04-07 09:47:11,14.98328329,0.0002809,70.0004,352.6508,270.5212,89.5625,-5.4599e-05,-7.44e-06,0.0,0 STARLINK-4623,1 55315U 23010AY  24098.40777770 -.00000744  00000-0 -54599-4 0  9990,2 55315  70.0004 352.6508 0002809 270.5212  89.5625 14.98328329 68210,6950.198,96.107,574.015,570.111,0.0
55315.0,STARLINK-4623,PAYLOAD,2024-04-07 22:36:16,14.98329114,0.0002401,70.0014,351.303,276.61,83.4786,-2.8383e-05,-4.32e-06,0.0,0 STARLINK-4623,1 55315U 23010AY  24098.94185793 -.00000432  00000-0 -28383-4 0  9993,2 55315  70.0014 351.3030 0002401 276.6100  83.4786 14.98329114 68290,6950.196,96.107,573.729,570.392,0.0
55315.0,STARLINK-4623,PAYLOAD,2024-04-08 03:24:40,14.98328123,0.0002512,70.001,350.7985,273.0254,87.0618,-3.4937e-05,-5.1e-06,0.0,0 STARLINK-4623,1 55315U 23010AY  24099.14213835 -.00000510  00000-0 -34937-4 0  9994,2 55315  70.0010 350.7985 0002512 273.0254  87.0618 14.98328123 68037,6950.199,96.107,573.81,570.318,0.0
55315.0,STARLINK-4623,PAYLOAD,2024-04-08 09:49:12,14.98329435,0.0002447,70.0012,350.1253,272.4492,87.6386,-1.7279e-05,-2.99e-06,0.0,0 STARLINK-4623,1 55315U 23010AY  24099.40917731 -.00000299  00000-0 -17279-4 0  9993,2 55315  70.0012 350.1253 0002447 272.4492  87.6386 14.98329435 68366,6950.195,96.107,573.76,570.359,0.0
55315.0,STARLINK-4623,PAYLOAD,2024-04-09 00:14:25,14.98325894,0.000235,70.0014,348.6096,268.6821,91.4069,-1.3426e-05,-2.53e-06,0.0,0 STARLINK-4623,1 55315U 23010AY  24100.01001741 -.00000253  00000-0 -13426-4 0  9998,2 55315  70.0014 348.6096 0002350 268.6821  91.4069 14.98325894 68457,6950.206,96.107,573.704,570.437,0.0
55315.0,STARLINK-4623,PAYLOAD,2024-04-09 03:26:41,14.98329176,0.000271,70.0003,348.2746,261.212,98.8732,0.00013251,1.488e-05,0.0,0 STARLINK-4623,1 55315U 23010AY  24100.14353032  .00001488  00000-0  13251-3 0  9999,2 55315  70.0003 348.2746 0002710 261.2120  98.8732 14.98329176 68189,6950.195,96.107,573.944,570.177,0.0
55315.0,STARLINK-4623,PAYLOAD,2024-04-09 09:51:13,14.98328446,0.0002406,70.0014,347.5998,276.745,83.3435,1.5272e-05,8.9e-07,0.0,0 STARLINK-4623,1 55315U 23010AY  24100.41057597  .00000089  00000-0  15272-4 0  9998,2 55315  70.0014 347.5998 0002406 276.7450  83.3435 14.98328446 68516,6950.198,96.107,573.735,570.39,0.0
55315.0,STARLINK-4623,PAYLOAD,2024-04-09 22:40:18,14.98326781,0.0002227,70.0015,346.2542,275.0705,85.02,-3.5282e-07,-9.7e-07,0.0,0 STARLINK-4623,1 55315U 23010AY  24100.94465867 -.00000097  00000-0 -35282-6 0  9995,2 55315  70.0015 346.2542 0002227 275.0705  85.0200 14.98326781 68591,6950.203,96.107,573.616,570.52,0.0
55315.0,STARLINK-4623,PAYLOAD,2024-04-10 09:53:15,14.98324315,0.0002304,70.0012,345.0763,274.8052,85.2844,-3.1702e-05,-4.71e-06,0.0,0 STARLINK-4623,1 55315U 23010AY  24101.41198204 -.00000471  00000-0 -31702-4 0  9993,2 55315  70.0012 345.0763 0002304 274.8052  85.2844 14.98324315 68371,6950.21,96.107,573.677,570.474,0.0
55315.0,STARLINK-4623,PAYLOAD,2024-04-10 22:42:19,14.9832673,0.0002966,69.9998,343.7286,268.7036,91.3783,2.5955e-05,2.17e-06,0.0,0 STARLINK-4623,1 55315U 23010AY  24101.94605571  .00000217  00000-0  25955-4 0  9990,2 55315  69.9998 343.7286 0002966 268.7036  91.3783 14.98326730 68748,6950.203,96.107,574.129,570.007,0.0
55315.0,STARLINK-4623,PAYLOAD,2024-04-11 01:54:35,14.98329655,0.0002903,69.9999,343.3918,268.3572,91.7254,7.7223e-06,-1e-08,0.0,0 STARLINK-4623,1 55315U 23010AY  24102.07957475 -.00000001  00000-0  77223-5 0  9996,2 55315  69.9999 343.3918 0002903 268.3572  91.7254 14.98329655 68475,6950.194,96.107,574.077,570.041,0.0
55315.0,STARLINK-4623,PAYLOAD,2024-04-11 22:44:19,14.98331289,0.0003046,69.9996,341.2037,269.9206,90.1604,7.2309e-05,7.7e-06,0.0,0 STARLINK-4623,1 55315U 23010AY  24102.94745129  .00000770  00000-0  72309-4 0  9994,2 55315  69.9996 341.2037 0003046 269.9206  90.1604 14.98331289 68895,6950.189,96.107,574.171,569.937,0.0
55315.0,STARLINK-4623,PAYLOAD,2024-04-12 01:56:35,14.98332189,0.0003043,69.9997,340.867,270.0163,90.0647,8.0354e-05,8.66e-06,0.0,0 STARLINK-4623,1 55315U 23010AY  24103.08097038  .00000866  00000-0  80354-4 0  9994,2 55315  69.9997 340.8670 0003043 270.0163  90.0647 14.98332189 68623,6950.186,96.107,574.166,569.936,0.0
